{
  "type": "FeatureCollection",
  "features": [
    {
      "type": "Feature",
      "properties": {
        "norad_id": 43719,
        "name": "HYSIS",
        "group": "resource",
        "lat": -15.985550782227353,
        "lon": -129.8926545133954,
        "alt_km": 639.1046261202155,
        "timestamp": "2025-12-15T10:55:20.787316+00:00",
        "meta_object_name": "HYSIS",
        "meta_object_id": "2018-096A",
        "meta_epoch": "2025-12-14T22:40:12.614880",
        "meta_mean_motion": 14.78655044,
        "meta_eccentricity": 0.00012643,
        "meta_inclination": 98.0099,
        "meta_ra_of_asc_node": 51.9112,
        "meta_arg_of_pericenter": 55.62,
        "meta_mean_anomaly": 304.513,
        "meta_ephemeris_type": 0,
        "meta_classification_type": "U",
        "meta_norad_cat_id": 43719,
        "meta_element_set_no": 999,
        "meta_rev_at_epoch": 38019,
        "meta_bstar": 0.00027582251,
        "meta_mean_motion_dot": 1.969e-05,
        "meta_mean_motion_ddot": 0,
        "tle_line1": "1 43719U 18096A   25348.94459045  .00001969  00000+0  27582-3 0  9991",
        "tle_line2": "2 43719  98.0099  51.9112 0001264  55.6200 304.5130 14.78655044380192"
      },
      "geometry": {
        "type": "Point",
        "coordinates": [
          -129.8926545133954,
          -15.985550782227353
        ]
      }
    },
    {
      "type": "Feature",
      "properties": {
        "norad_id": 43783,
        "name": "KAZSTSAT",
        "group": "resource",
        "lat": -81.47499800787985,
        "lon": 85.40813441200667,
        "alt_km": 573.3508480348191,
        "timestamp": "2025-12-15T10:55:20.787327+00:00",
        "meta_object_name": "KAZSTSAT",
        "meta_object_id": "2018-099AB",
        "meta_epoch": "2025-12-14T16:05:03.549408",
        "meta_mean_motion": 14.99358736,
        "meta_eccentricity": 0.00058816,
        "meta_inclination": 97.4557,
        "meta_ra_of_asc_node": 23.7728,
        "meta_arg_of_pericenter": 321.8607,
        "meta_mean_anomaly": 38.22,
        "meta_ephemeris_type": 0,
        "meta_classification_type": "U",
        "meta_norad_cat_id": 43783,
        "meta_element_set_no": 999,
        "meta_rev_at_epoch": 38365,
        "meta_bstar": 9.6030563e-05,
        "meta_mean_motion_dot": 1.119e-05,
        "meta_mean_motion_ddot": 0,
        "tle_line1": "1 43783U 18099AB  25348.67017997  .00001119  00000+0  96031-4 0  9994",
        "tle_line2": "2 43783  97.4557  23.7728 0005881 321.8607  38.2200 14.99358736383657"
      },
      "geometry": {
        "type": "Point",
        "coordinates": [
          85.40813441200667,
          -81.47499800787985
        ]
      }
    },
    {
      "type": "Feature",
      "properties": {
        "norad_id": 43831,
        "name": "SAUDISAT 5A",
        "group": "resource",
        "lat": -43.491800776472445,
        "lon": -137.4262987087691,
        "alt_km": 502.7806521063594,
        "timestamp": "2025-12-15T10:55:20.787339+00:00",
        "meta_object_name": "SAUDISAT 5A",
        "meta_object_id": "2018-102A",
        "meta_epoch": "2025-12-14T22:55:35.469696",
        "meta_mean_motion": 15.25688162,
        "meta_eccentricity": 0.00116816,
        "meta_inclination": 97.3357,
        "meta_ra_of_asc_node": 49.1035,
        "meta_arg_of_pericenter": 69.3805,
        "meta_mean_anomaly": 290.8685,
        "meta_ephemeris_type": 0,
        "meta_classification_type": "U",
        "meta_norad_cat_id": 43831,
        "meta_element_set_no": 999,
        "meta_rev_at_epoch": 38756,
        "meta_bstar": 0.00019024174,
        "meta_mean_motion_dot": 4.783e-05,
        "meta_mean_motion_ddot": 0,
        "tle_line1": "1 43831U 18102A   25348.95527164  .00004783  00000+0  19024-3 0  9992",
        "tle_line2": "2 43831  97.3357  49.1035 0011681  69.3805 290.8685 15.25688162387566"
      },
      "geometry": {
        "type": "Point",
        "coordinates": [
          -137.4262987087691,
          -43.491800776472445
        ]
      }
    },
    {
      "type": "Feature",
      "properties": {
        "norad_id": 43833,
        "name": "SAUDISAT 5B",
        "group": "resource",
        "lat": -78.10862828060714,
        "lon": 90.11323837892525,
        "alt_km": 502.42503349835806,
        "timestamp": "2025-12-15T10:55:20.787351+00:00",
        "meta_object_name": "SAUDISAT 5B",
        "meta_object_id": "2018-102C",
        "meta_epoch": "2025-12-14T22:41:09.422016",
        "meta_mean_motion": 15.26039101,
        "meta_eccentricity": 0.00124156,
        "meta_inclination": 97.3451,
        "meta_ra_of_asc_node": 51.8363,
        "meta_arg_of_pericenter": 71.6515,
        "meta_mean_anomaly": 288.6073,
        "meta_ephemeris_type": 0,
        "meta_classification_type": "U",
        "meta_norad_cat_id": 43833,
        "meta_element_set_no": 999,
        "meta_rev_at_epoch": 38767,
        "meta_bstar": 0.00018777871,
        "meta_mean_motion_dot": 4.771e-05,
        "meta_mean_motion_ddot": 0,
        "tle_line1": "1 43833U 18102C   25348.94524794  .00004771  00000+0  18778-3 0  9991",
        "tle_line2": "2 43833  97.3451  51.8363 0012415  71.6515 288.6073 15.26039101387679"
      },
      "geometry": {
        "type": "Point",
        "coordinates": [
          90.11323837892525,
          -78.10862828060714
        ]
      }
    },
    {
      "type": "Feature",
      "properties": {
        "norad_id": 44622,
        "name": "GAOFEN-10R",
        "group": "resource",
        "lat": 18.739179113279544,
        "lon": 119.71603846815105,
        "alt_km": 624.0263248542224,
        "timestamp": "2025-12-15T10:55:20.787361+00:00",
        "meta_object_name": "GAOFEN-10R",
        "meta_object_id": "2019-066A",
        "meta_epoch": "2025-12-14T22:51:45.479808",
        "meta_mean_motion": 14.82801171,
        "meta_eccentricity": 0.0007714,
        "meta_inclination": 98.0275,
        "meta_ra_of_asc_node": 296.4675,
        "meta_arg_of_pericenter": 35.6659,
        "meta_mean_anomaly": 324.5068,
        "meta_ephemeris_type": 0,
        "meta_classification_type": "U",
        "meta_norad_cat_id": 44622,
        "meta_element_set_no": 999,
        "meta_rev_at_epoch": 33507,
        "meta_bstar": 0.00019785403,
        "meta_mean_motion_dot": 1.546e-05,
        "meta_mean_motion_ddot": 0,
        "tle_line1": "1 44622U 19066A   25348.95260972  .00001546  00000+0  19785-3 0  9990",
        "tle_line2": "2 44622  98.0275 296.4675 0007714  35.6659 324.5068 14.82801171335072"
      },
      "geometry": {
        "type": "Point",
        "coordinates": [
          119.71603846815105,
          18.739179113279544
        ]
      }
    },
    {
      "type": "Feature",
      "properties": {
        "norad_id": 44804,
        "name": "CARTOSAT-3",
        "group": "resource",
        "lat": -40.71688297460716,
        "lon": 55.478208065528555,
        "alt_km": 519.0733981671337,
        "timestamp": "2025-12-15T10:55:20.787371+00:00",
        "meta_object_name": "CARTOSAT-3",
        "meta_object_id": "2019-081A",
        "meta_epoch": "2025-12-14T22:27:24.211296",
        "meta_mean_motion": 15.19171641,
        "meta_eccentricity": 0.00141312,
        "meta_inclination": 97.4587,
        "meta_ra_of_asc_node": 48.4913,
        "meta_arg_of_pericenter": 75.9473,
        "meta_mean_anomaly": 284.3331,
        "meta_ephemeris_type": 0,
        "meta_classification_type": "U",
        "meta_norad_cat_id": 44804,
        "meta_element_set_no": 999,
        "meta_rev_at_epoch": 33549,
        "meta_bstar": 0.00015197001,
        "meta_mean_motion_dot": 3.134e-05,
        "meta_mean_motion_ddot": 0,
        "tle_line1": "1 44804U 19081A   25348.93569689  .00003134  00000+0  15197-3 0  9992",
        "tle_line2": "2 44804  97.4587  48.4913 0014131  75.9473 284.3331 15.19171641335490"
      },
      "geometry": {
        "type": "Point",
        "coordinates": [
          55.478208065528555,
          -40.71688297460716
        ]
      }
    },
    {
      "type": "Feature",
      "properties": {
        "norad_id": 44819,
        "name": "GAOFEN-12 01",
        "group": "resource",
        "lat": 46.331918024275794,
        "lon": -12.604952484349171,
        "alt_km": 624.2113374873807,
        "timestamp": "2025-12-15T10:55:20.787382+00:00",
        "meta_object_name": "GAOFEN-12 01",
        "meta_object_id": "2019-082A",
        "meta_epoch": "2025-12-14T23:21:29.061792",
        "meta_mean_motion": 14.80659817,
        "meta_eccentricity": 0.00014413,
        "meta_inclination": 97.8126,
        "meta_ra_of_asc_node": 355.1957,
        "meta_arg_of_pericenter": 220.3756,
        "meta_mean_anomaly": 139.735,
        "meta_ephemeris_type": 0,
        "meta_classification_type": "U",
        "meta_norad_cat_id": 44819,
        "meta_element_set_no": 999,
        "meta_rev_at_epoch": 32683,
        "meta_bstar": 7.7295874e-05,
        "meta_mean_motion_dot": 5.43e-06,
        "meta_mean_motion_ddot": 0,
        "tle_line1": "1 44819U 19082A   25348.97325303  .00000543  00000+0  77296-4 0  9996",
        "tle_line2": "2 44819  97.8126 355.1957 0001441 220.3756 139.7350 14.80659817326830"
      },
      "geometry": {
        "type": "Point",
        "coordinates": [
          -12.604952484349171,
          46.331918024275794
        ]
      }
    }
  ]
}